#dP2018  3 29  0  0  0.00000000      96 __u+U ITR00 FIT  IAC
## 1994 345600.00000000   900.00000000 58206 0.0000000000000
+   86   C01C02C03C04C05C06C07C08C09C10C11C12C13C14E01E02E03
+        E04E05E07E08E09E11E12E14E18E19E24E26E30G01G02G03G05
+        G06G07G08G09G10G11G12G14G15G16G17G18G19G20G21G22G23
+        G24G25G26G27G28G29G30G31G32J02J03R01R02R03R04R05R06
+        R07R08R09R10R11R13R14R15R16R17R18R19R20R21R22R23R24
+        R26  0  0  0  0  0  0  0  0  0  0  0  0  0  0  0  0
++        12 14 12 12 11  9  9  9  8  8  8  7  8  7  6  6  6
++         6  6  6  6  6  7  7  6  7  6  7  6  6  3  3  3  3
++         3  3  3  3  3  3  3  3  4  3  3  3  3  4  4  3  3
++         3  4  3  5  3  3  3  3  3 14 11  5  5  5  5  6  5
++         5  5  5  5  5  6  5  5  5  5  5  5  5  5  5  5  6
++         9  0  0  0  0  0  0  0  0  0  0  0  0  0  0  0  0
%c M  cc GPS ccc cccc cccc cccc cccc ccccc ccccc ccccc ccccc
%c cc cc ccc ccc cccc cccc cccc cccc ccccc ccccc ccccc ccccc
%f  0.0000000  0.000000000  0.00000000000  0.000000000000000
%f  0.0000000  0.000000000  0.00000000000  0.000000000000000
%i    0    0    0    0      0      0      0      0         0
%i    0    0    0    0      0      0      0      0         0
/* INFORMATION & ANALYSIS CENTER (IAC) OF MCC   (RAPID DATA)
/* S/V CLOCKS ARE ALIGNED TO GPS & GLONASS TIME RESPECTIVELY
/* USING THE BROADCAST EPHEMERIS                            
/* PCV:IGS14_1992 OL/AL:FES2004  NONE     YN ORB:CoN CLK:CoN
*  2018 03 29  6 45  0.00000000
PC01 -32306.825990  27073.903651   1028.116790    543.236685
PC02   4455.577978  41905.482862  -1164.450548    644.228176
PC03 -14856.179500  39415.240658    425.350962   -380.220925
PC04 -39616.971979  14481.200207    365.686080   -189.491167
PC05  21838.867876  36011.622024  -1516.116233   -196.269995
PC06  -9130.720324  36312.588225 -18799.536220    502.536264
PC07 -12369.011153  22607.118744  33469.316979    915.344989
PC08 -25761.010486  30653.560838 -13481.119687    255.791151
PC09    256.753493  41746.770068  -4452.286908   -271.053402
PC10   1549.257060  26860.158195  32628.803377   -117.712593
PC11   2074.021180 -24243.501959  13660.627263   -446.504126
PC12  14826.620976 -23110.768221  -4660.419926    401.732995
PC13 -11882.008406  31529.794797 -25460.023389   -266.123960
PC14  -7420.087998 -24638.338058  10928.409419    337.845336
PE01 -24423.850407 -13687.881860  -9613.569504   -309.073139
PE02  24437.034017  13668.050635   9580.303652      8.947718
PE03  15660.535765  20282.312128  14828.152427    -14.937594
PE04 -17402.807879    317.803891 -23937.089146     -3.656528
PE05   4730.085186  29062.930057  -3005.284370    294.997056
PE07   8950.102597 -20818.676324  19050.102887     59.762261
PE08  17271.196912   -425.662877  24041.421399   6614.970340
PE09  -8651.141645  20849.672682 -19144.754488   6835.425987
PE11 -19373.747120  22080.146232  -3534.702095   1839.637500
PE12 -23864.429596   9077.550303  14964.756332   3817.246870
PE14  21466.283172  -2520.243032 -24366.737299   6607.973173
PE18 -15490.190520   1844.324003  17419.181698   6322.813355
PE19 -14961.171951 -21746.042563 -13400.116952     20.800807
PE24 -15055.371644  11165.559570  22899.316426   6787.988188
PE26   3912.028607 -22020.914787  19399.211686   6111.828601
PE30  27958.437223   1791.127518  -9551.948225   5964.368067
PG01    934.682089  15383.110212 -21738.971336    -37.129700
PG02  20037.043003 -15002.882628   9038.903032    160.534185
PG03   8737.785790  20799.961527 -14080.846856     39.047320
PG05  10316.116309 -11504.963928  21504.644836    -11.045301
PG06  25592.602880  -6205.676325  -3516.193897    411.084552
PG07  17356.838102   8270.110069  18719.303185    215.840414
PG08  -4449.036776  26095.867926   -621.050390    -95.948019
PG09   9945.258841  16678.816633  18080.629936    508.962392
PG10 -22180.709173  -7876.241001 -12415.136720    174.537162
PG11  -1163.383635  20171.803748 -17862.809050   -737.541874
PG12  -6075.831869 -20742.343234 -15755.305029    342.694046
PG14 -16013.778560  10657.500673 -17954.469596    -95.634739
PG15   2272.667772 -26237.879732  -1030.146384   -356.016205
PG16 -10792.052491   9776.133998  22064.218638     29.109402
PG17  15081.635396  -1368.649131 -21422.745845   -111.684966
PG18  -8051.922178  17461.967035 -18694.187106    -10.070575
PG19  16270.233336  -8857.834497 -19392.714781   -447.572513
PG20 -13053.224371 -19930.673343  11702.789028    504.410599
PG21 -19673.428217  -6016.841313  17608.666643   -413.969697
PG22   1693.308884  18889.208612 -18345.220899   -339.315786
PG23   1999.882140  24787.218532   8971.653152   -218.328613
PG24   2379.012523 -16846.462749 -20446.879500    -47.862281
PG25 -17359.905933 -19734.034725  -4816.766667   -561.018324
PG26 -18557.495396   1790.859318  18959.025093   -201.373196
PG27 -12172.714341  20144.529856  11982.348501    370.066586
PG28  20947.333074  12661.534856  -9630.315455    701.346674
PG29  -6136.754938 -19871.226031  16517.360602    474.910763
PG30  23538.351864   2562.668190  12190.380822     90.246423
PG31 -25921.024245   6465.249717  -1962.818226    132.211515
PG32 -15546.374287    802.574320 -21482.793922   -525.220867
PJ02 -30794.933570  23311.811634  21613.308314      0.316595
PJ03 -28177.293050  26240.797207  22248.631686    -16.319272
PR01    922.467357  20348.019419 -15362.301831     24.056312
PR02  11415.511216  22520.033670   3492.534022    302.117843
PR03  14094.509891  10420.648532  18553.856989    127.967788
PR04   8276.215491  -8150.692423  22727.987525    255.102531
PR05  -2049.318895 -21211.953248  14006.450827   -273.255048
PR06 -12114.579944 -22053.854561  -4285.877298    129.544891
PR07 -14038.582770 -10148.496257 -18703.941560    -33.771460
PR08  -8594.686818   7482.053407 -22769.292496     22.746325
PR09 -14703.565268 -10650.715737 -17879.309807     38.546402
PR10 -24927.172531  -4522.718344  -2633.508551     21.436057
PR11 -20422.098511   4393.910775  14619.060152    -25.139523
PR13  15383.878917  10063.393422  17660.900205     -8.890197
PR14  24940.548787   4563.675479   2838.928045     25.860412
PR15  22543.530399  -2424.466254 -11580.046307     -8.008549
PR16   4492.381061 -10458.690340 -22845.789440     88.939078
PR17  13413.507120  -1105.939239 -21648.807224    120.409441
PR18  17565.900446 -15476.904402 -10192.885223    189.926612
PR19  12396.264244 -21074.848845   7288.417738    -48.573273
PR20  -1118.908332 -14100.787618  21252.779360   -332.370978
PR21 -13519.175185   1459.808112  21590.333274     23.207116
PR22 -17412.057367  16502.140548   8477.456401    -30.399456
PR23  -9853.927913  20974.457075 -10651.569342    144.501956
PR24   2060.346626  13489.243814 -21565.127017   -164.287179
PR26  -1143.160384 -14354.125275  21064.581870      8.676311
EOF
